{
  "norad_id": 57169,
  "name": "2023-091D",
  "history": [
    {
      "epoch": "2026-05-02T09:58:56.371008Z",
      "apogee_km": 501.3865653035764,
      "perigee_km": 489.51038432019686,
      "latitude_deg": -3.852394617144874e-05,
      "longitude_deg": 173.80923798160816,
      "height_km": 499.80804148292845,
      "semi_major_axis_km": 6873.585474811886,
      "eccentricity": 0.0008639,
      "inclination_deg": 97.5141,
      "raan_deg": 183.8784,
      "arg_perigee_deg": 257.7514,
      "mean_anomaly_deg": 102.2755,
      "mean_motion_rev_day": 15.23448423
    },
    {
      "epoch": "2026-05-03T20:39:44.682912Z",
      "apogee_km": 501.3667312131611,
      "perigee_km": 489.37658271195505,
      "latitude_deg": 3.59942016745103e-05,
      "longitude_deg": 13.630664166573023,
      "height_km": 500.32917679772413,
      "semi_major_axis_km": 6873.508656962557,
      "eccentricity": 0.0008722,
      "inclination_deg": 97.5137,
      "raan_deg": 185.3254,
      "arg_perigee_deg": 251.9494,
      "mean_anomaly_deg": 108.0793,
      "mean_motion_rev_day": 15.23473962
    },
    {
      "epoch": "2026-05-04T20:18:27.333216Z",
      "apogee_km": 501.35658306195,
      "perigee_km": 489.2812956676753,
      "latitude_deg": -5.502272362425506e-05,
      "longitude_deg": 18.968489999084255,
      "height_km": 500.67824224951204,
      "semi_major_axis_km": 6873.455939364812,
      "eccentricity": 0.0008784,
      "inclination_deg": 97.5135,
      "raan_deg": 186.312,
      "arg_perigee_deg": 248.0247,
      "mean_anomaly_deg": 112.0056,
      "mean_motion_rev_day": 15.23491489
    },
    {
      "epoch": "2026-05-05T19:57:08.849088Z",
      "apogee_km": 501.33620515694747,
      "perigee_km": 489.1812921150595,
      "latitude_deg": 5.198090283496741e-05,
      "longitude_deg": 24.31112928708226,
      "height_km": 501.0361741988653,
      "semi_major_axis_km": 6873.395748636003,
      "eccentricity": 0.0008842,
      "inclination_deg": 97.5133,
      "raan_deg": 187.2987,
      "arg_perigee_deg": 243.8612,
      "mean_anomaly_deg": 116.1716,
      "mean_motion_rev_day": 15.23511501
    },
    {
      "epoch": "2026-05-06T19:35:49.462944Z",
      "apogee_km": 501.3320284964202,
      "perigee_km": 489.10295618364853,
      "latitude_deg": -2.772277591018912e-06,
      "longitude_deg": 29.65755847198139,
      "height_km": 501.38212648970654,
      "semi_major_axis_km": 6873.354492340034,
      "eccentricity": 0.0008896,
      "inclination_deg": 97.5132,
      "raan_deg": 188.2854,
      "arg_perigee_deg": 239.9206,
      "mean_anomaly_deg": 120.1149,
      "mean_motion_rev_day": 15.23525218
    },
    {
      "epoch": "2026-05-07T20:49:04.109088Z",
      "apogee_km": 501.34823315444373,
      "perigee_km": 489.0051364392857,
      "latitude_deg": 8.450528408388687e-06,
      "longitude_deg": 11.363048918357759,
      "height_km": 501.7427771041871,
      "semi_major_axis_km": 6873.313684796864,
      "eccentricity": 0.0008979,
      "inclination_deg": 97.5132,
      "raan_deg": 189.3377,
      "arg_perigee_deg": 235.832,
      "mean_anomaly_deg": 124.2066,
      "mean_motion_rev_day": 15.23538786
    },
    {
      "epoch": "2026-05-08T20:27:43.350048Z",
      "apogee_km": 501.35965151426626,
      "perigee_km": 488.91078087629285,
      "latitude_deg": 2.2441035287294738e-05,
      "longitude_deg": 16.71510605224574,
      "height_km": 502.0842001121281,
      "semi_major_axis_km": 6873.272216195279,
      "eccentricity": 0.0009056,
      "inclination_deg": 97.5132,
      "raan_deg": 190.3243,
      "arg_perigee_deg": 231.8027,
      "mean_anomaly_deg": 128.2395,
      "mean_motion_rev_day": 15.23552574
    },
    {
      "epoch": "2026-05-09T20:06:21.880800Z",
      "apogee_km": 501.3888442751504,
      "perigee_km": 488.8190612207645,
      "latitude_deg": 2.8227434292633003e-05,
      "longitude_deg": 22.070132361099763,
      "height_km": 502.4158942077666,
      "semi_major_axis_km": 6873.240952747957,
      "eccentricity": 0.0009144,
      "inclination_deg": 97.5133,
      "raan_deg": 191.3109,
      "arg_perigee_deg": 227.9185,
      "mean_anomaly_deg": 132.1275,
      "mean_motion_rev_day": 15.23562969
    },
    {
      "epoch": "2026-05-10T19:44:59.767872Z",
      "apogee_km": 501.4186318231141,
      "perigee_km": 488.72518960680554,
      "latitude_deg": -7.786715216420472e-05,
      "longitude_deg": 27.42786360006624,
      "height_km": 502.72166908426556,
      "semi_major_axis_km": 6873.2089107149595,
      "eccentricity": 0.0009234,
      "inclination_deg": 97.5134,
      "raan_deg": 192.2975,
      "arg_perigee_deg": 224.2007,
      "mean_anomaly_deg": 135.8492,
      "mean_motion_rev_day": 15.23573623
    },
    {
      "epoch": "2026-05-11T19:23:37.165056Z",
      "apogee_km": 501.4393948588713,
      "perigee_km": 488.64703184577957,
      "latitude_deg": 8.041132803899394e-05,
      "longitude_deg": 32.78760783128698,
      "height_km": 503.01256119748376,
      "semi_major_axis_km": 6873.180213352325,
      "eccentricity": 0.0009306,
      "inclination_deg": 97.5136,
      "raan_deg": 193.2841,
      "arg_perigee_deg": 220.4164,
      "mean_anomaly_deg": 139.6383,
      "mean_motion_rev_day": 15.23583165
    },
    {
      "epoch": "2026-05-12T20:36:48.527136Z",
      "apogee_km": 501.4700048259074,
      "perigee_km": 488.5526098970531,
      "latitude_deg": 1.0144945220668263e-05,
      "longitude_deg": 14.506834147305572,
      "height_km": 503.3190731781875,
      "semi_major_axis_km": 6873.14830736148,
      "eccentricity": 0.0009397,
      "inclination_deg": 97.5136,
      "raan_deg": 194.3364,
      "arg_perigee_deg": 216.2527,
      "mean_anomaly_deg": 143.8074,
      "mean_motion_rev_day": 15.23593774
    },
    {
      "epoch": "2026-05-13T20:15:24.865056Z",
      "apogee_km": 501.5112123548661,
      "perigee_km": 488.4536600499687,
      "latitude_deg": 1.427013104792084e-05,
      "longitude_deg": 19.871025180530463,
      "height_km": 503.58383641028126,
      "semi_major_axis_km": 6873.119436202417,
      "eccentricity": 0.0009499,
      "inclination_deg": 97.5135,
      "raan_deg": 195.323,
      "arg_perigee_deg": 212.5657,
      "mean_anomaly_deg": 147.4995,
      "mean_motion_rev_day": 15.23603374
    },
    {
      "epoch": "2026-05-14T05:42:51.261120Z",
      "apogee_km": 501.5349777334013,
      "perigee_km": 488.40514385302777,
      "latitude_deg": -2.5513916800100905e-05,
      "longitude_deg": -121.98275188482833,
      "height_km": 503.68973517266613,
      "semi_major_axis_km": 6873.107060793214,
      "eccentricity": 0.00095516,
      "inclination_deg": 97.5134,
      "raan_deg": 195.7176,
      "arg_perigee_deg": 211.1111,
      "mean_anomaly_deg": 148.9561,
      "mean_motion_rev_day": 15.23607489
    },
    {
      "epoch": "2026-05-15T06:56:01.290048Z",
      "apogee_km": 501.58641348267247,
      "perigee_km": 488.3081644831009,
      "latitude_deg": -7.017014590995517e-05,
      "longitude_deg": -140.2579594140889,
      "height_km": 503.94402321899526,
      "semi_major_axis_km": 6873.084288982886,
      "eccentricity": 0.00096596,
      "inclination_deg": 97.5133,
      "raan_deg": 196.7699,
      "arg_perigee_deg": 207.3296,
      "mean_anomaly_deg": 152.7433,
      "mean_motion_rev_day": 15.23615061
    }
  ]
}